<?xml version="1.0" encoding="UTF-8"?>
<ndm xmlns:xsi="http://www.w3.org/2001/XMLSchema-instance" xsi:noNamespaceSchemaLocation="https://sanaregistry.org/r/ndmxml_unqualified/ndmxml-2.0.0-master-2.0.xsd">
<omm id="CCSDS_OMM_VERS" version="2.0">
<header><CREATION_DATE/><ORIGINATOR/></header><body><segment><metadata><OBJECT_NAME>KUIPER-00008</OBJECT_NAME><OBJECT_ID>2025-088A</OBJECT_ID><CENTER_NAME>EARTH</CENTER_NAME><REF_FRAME>TEME</REF_FRAME><TIME_SYSTEM>UTC</TIME_SYSTEM><MEAN_ELEMENT_THEORY>SGP4</MEAN_ELEMENT_THEORY></metadata><data><meanElements><EPOCH>2025-08-03T09:41:37.465440</EPOCH><MEAN_MOTION>14.98673133</MEAN_MOTION><ECCENTRICITY>.0011734</ECCENTRICITY><INCLINATION>51.8915</INCLINATION><RA_OF_ASC_NODE>2.1013</RA_OF_ASC_NODE><ARG_OF_PERICENTER>86.7693</ARG_OF_PERICENTER><MEAN_ANOMALY>273.4620</MEAN_ANOMALY></meanElements><tleParameters><EPHEMERIS_TYPE>0</EPHEMERIS_TYPE><CLASSIFICATION_TYPE>U</CLASSIFICATION_TYPE><NORAD_CAT_ID>63724</NORAD_CAT_ID><ELEMENT_SET_NO>999</ELEMENT_SET_NO><REV_AT_EPOCH>1531</REV_AT_EPOCH><BSTAR>.37368E-3</BSTAR><MEAN_MOTION_DOT>.4282E-4</MEAN_MOTION_DOT><MEAN_MOTION_DDOT>0</MEAN_MOTION_DDOT></tleParameters></data></segment></body></omm>
<omm id="CCSDS_OMM_VERS" version="2.0">
<header><CREATION_DATE/><ORIGINATOR/></header><body><segment><metadata><OBJECT_NAME>KUIPER-00009</OBJECT_NAME><OBJECT_ID>2025-088B</OBJECT_ID><CENTER_NAME>EARTH</CENTER_NAME><REF_FRAME>TEME</REF_FRAME><TIME_SYSTEM>UTC</TIME_SYSTEM><MEAN_ELEMENT_THEORY>SGP4</MEAN_ELEMENT_THEORY></metadata><data><meanElements><EPOCH>2025-08-03T22:00:01.999584</EPOCH><MEAN_MOTION>15.11795054</MEAN_MOTION><ECCENTRICITY>.0011444</ECCENTRICITY><INCLINATION>51.8812</INCLINATION><RA_OF_ASC_NODE>352.9972</RA_OF_ASC_NODE><ARG_OF_PERICENTER>109.9277</ARG_OF_PERICENTER><MEAN_ANOMALY>256.6383</MEAN_ANOMALY></meanElements><tleParameters><EPHEMERIS_TYPE>0</EPHEMERIS_TYPE><CLASSIFICATION_TYPE>U</CLASSIFICATION_TYPE><NORAD_CAT_ID>63725</NORAD_CAT_ID><ELEMENT_SET_NO>999</ELEMENT_SET_NO><REV_AT_EPOCH>1548</REV_AT_EPOCH><BSTAR>.10158E-2</BSTAR><MEAN_MOTION_DOT>.17321E-3</MEAN_MOTION_DOT><MEAN_MOTION_DDOT>0</MEAN_MOTION_DDOT></tleParameters></data></segment></body></omm>
<omm id="CCSDS_OMM_VERS" version="2.0">
<header><CREATION_DATE/><ORIGINATOR/></header><body><segment><metadata><OBJECT_NAME>KUIPER-00010</OBJECT_NAME><OBJECT_ID>2025-088C</OBJECT_ID><CENTER_NAME>EARTH</CENTER_NAME><REF_FRAME>TEME</REF_FRAME><TIME_SYSTEM>UTC</TIME_SYSTEM><MEAN_ELEMENT_THEORY>SGP4</MEAN_ELEMENT_THEORY></metadata><data><meanElements><EPOCH>2025-08-03T18:03:31.699008</EPOCH><MEAN_MOTION>15.36237014</MEAN_MOTION><ECCENTRICITY>.0009585</ECCENTRICITY><INCLINATION>51.8655</INCLINATION><RA_OF_ASC_NODE>351.2635</RA_OF_ASC_NODE><ARG_OF_PERICENTER>100.0680</ARG_OF_PERICENTER><MEAN_ANOMALY>260.1388</MEAN_ANOMALY></meanElements><tleParameters><EPHEMERIS_TYPE>0</EPHEMERIS_TYPE><CLASSIFICATION_TYPE>U</CLASSIFICATION_TYPE><NORAD_CAT_ID>63726</NORAD_CAT_ID><ELEMENT_SET_NO>999</ELEMENT_SET_NO><REV_AT_EPOCH>1511</REV_AT_EPOCH><BSTAR>.3256E-3</BSTAR><MEAN_MOTION_DOT>.11321E-3</MEAN_MOTION_DOT><MEAN_MOTION_DDOT>0</MEAN_MOTION_DDOT></tleParameters></data></segment></body></omm>
<omm id="CCSDS_OMM_VERS" version="2.0">
<header><CREATION_DATE/><ORIGINATOR/></header><body><segment><metadata><OBJECT_NAME>KUIPER-00011</OBJECT_NAME><OBJECT_ID>2025-088D</OBJECT_ID><CENTER_NAME>EARTH</CENTER_NAME><REF_FRAME>TEME</REF_FRAME><TIME_SYSTEM>UTC</TIME_SYSTEM><MEAN_ELEMENT_THEORY>SGP4</MEAN_ELEMENT_THEORY></metadata><data><meanElements><EPOCH>2025-08-04T02:34:33.109824</EPOCH><MEAN_MOTION>15.35734040</MEAN_MOTION><ECCENTRICITY>.0010913</ECCENTRICITY><INCLINATION>51.8588</INCLINATION><RA_OF_ASC_NODE>349.8211</RA_OF_ASC_NODE><ARG_OF_PERICENTER>110.6248</ARG_OF_PERICENTER><MEAN_ANOMALY>249.5909</MEAN_ANOMALY></meanElements><tleParameters><EPHEMERIS_TYPE>0</EPHEMERIS_TYPE><CLASSIFICATION_TYPE>U</CLASSIFICATION_TYPE><NORAD_CAT_ID>63727</NORAD_CAT_ID><ELEMENT_SET_NO>999</ELEMENT_SET_NO><REV_AT_EPOCH>1530</REV_AT_EPOCH><BSTAR>.43069E-3</BSTAR><MEAN_MOTION_DOT>.14868E-3</MEAN_MOTION_DOT><MEAN_MOTION_DDOT>0</MEAN_MOTION_DDOT></tleParameters></data></segment></body></omm>
<omm id="CCSDS_OMM_VERS" version="2.0">
<header><CREATION_DATE/><ORIGINATOR/></header><body><segment><metadata><OBJECT_NAME>KUIPER-00012</OBJECT_NAME><OBJECT_ID>2025-088E</OBJECT_ID><CENTER_NAME>EARTH</CENTER_NAME><REF_FRAME>TEME</REF_FRAME><TIME_SYSTEM>UTC</TIME_SYSTEM><MEAN_ELEMENT_THEORY>SGP4</MEAN_ELEMENT_THEORY></metadata><data><meanElements><EPOCH>2025-08-03T15:34:57.290880</EPOCH><MEAN_MOTION>15.35863592</MEAN_MOTION><ECCENTRICITY>.0011107</ECCENTRICITY><INCLINATION>51.8576</INCLINATION><RA_OF_ASC_NODE>351.9898</RA_OF_ASC_NODE><ARG_OF_PERICENTER>109.8948</ARG_OF_PERICENTER><MEAN_ANOMALY>250.3236</MEAN_ANOMALY></meanElements><tleParameters><EPHEMERIS_TYPE>0</EPHEMERIS_TYPE><CLASSIFICATION_TYPE>U</CLASSIFICATION_TYPE><NORAD_CAT_ID>63728</NORAD_CAT_ID><ELEMENT_SET_NO>999</ELEMENT_SET_NO><REV_AT_EPOCH>1518</REV_AT_EPOCH><BSTAR>.37551E-3</BSTAR><MEAN_MOTION_DOT>.12966E-3</MEAN_MOTION_DOT><MEAN_MOTION_DDOT>0</MEAN_MOTION_DDOT></tleParameters></data></segment></body></omm>
<omm id="CCSDS_OMM_VERS" version="2.0">
<header><CREATION_DATE/><ORIGINATOR/></header><body><segment><metadata><OBJECT_NAME>KUIPER-00013</OBJECT_NAME><OBJECT_ID>2025-088F</OBJECT_ID><CENTER_NAME>EARTH</CENTER_NAME><REF_FRAME>TEME</REF_FRAME><TIME_SYSTEM>UTC</TIME_SYSTEM><MEAN_ELEMENT_THEORY>SGP4</MEAN_ELEMENT_THEORY></metadata><data><meanElements><EPOCH>2025-08-03T09:01:17.710752</EPOCH><MEAN_MOTION>15.13374658</MEAN_MOTION><ECCENTRICITY>.0006371</ECCENTRICITY><INCLINATION>51.8800</INCLINATION><RA_OF_ASC_NODE>356.1299</RA_OF_ASC_NODE><ARG_OF_PERICENTER>66.4293</ARG_OF_PERICENTER><MEAN_ANOMALY>293.7352</MEAN_ANOMALY></meanElements><tleParameters><EPHEMERIS_TYPE>0</EPHEMERIS_TYPE><CLASSIFICATION_TYPE>U</CLASSIFICATION_TYPE><NORAD_CAT_ID>63729</NORAD_CAT_ID><ELEMENT_SET_NO>999</ELEMENT_SET_NO><REV_AT_EPOCH>1520</REV_AT_EPOCH><BSTAR>.29048E-3</BSTAR><MEAN_MOTION_DOT>.4948E-4</MEAN_MOTION_DOT><MEAN_MOTION_DDOT>0</MEAN_MOTION_DDOT></tleParameters></data></segment></body></omm>
<omm id="CCSDS_OMM_VERS" version="2.0">
<header><CREATION_DATE/><ORIGINATOR/></header><body><segment><metadata><OBJECT_NAME>KUIPER-00014</OBJECT_NAME><OBJECT_ID>2025-088G</OBJECT_ID><CENTER_NAME>EARTH</CENTER_NAME><REF_FRAME>TEME</REF_FRAME><TIME_SYSTEM>UTC</TIME_SYSTEM><MEAN_ELEMENT_THEORY>SGP4</MEAN_ELEMENT_THEORY></metadata><data><meanElements><EPOCH>2025-08-03T15:48:04.098528</EPOCH><MEAN_MOTION>15.12399222</MEAN_MOTION><ECCENTRICITY>.0009306</ECCENTRICITY><INCLINATION>51.8803</INCLINATION><RA_OF_ASC_NODE>355.8433</RA_OF_ASC_NODE><ARG_OF_PERICENTER>98.7990</ARG_OF_PERICENTER><MEAN_ANOMALY>261.4040</MEAN_ANOMALY></meanElements><tleParameters><EPHEMERIS_TYPE>0</EPHEMERIS_TYPE><CLASSIFICATION_TYPE>U</CLASSIFICATION_TYPE><NORAD_CAT_ID>63730</NORAD_CAT_ID><ELEMENT_SET_NO>999</ELEMENT_SET_NO><REV_AT_EPOCH>1504</REV_AT_EPOCH><BSTAR>.84952E-3</BSTAR><MEAN_MOTION_DOT>.14673E-3</MEAN_MOTION_DOT><MEAN_MOTION_DDOT>0</MEAN_MOTION_DDOT></tleParameters></data></segment></body></omm>
<omm id="CCSDS_OMM_VERS" version="2.0">
<header><CREATION_DATE/><ORIGINATOR/></header><body><segment><metadata><OBJECT_NAME>KUIPER-00015</OBJECT_NAME><OBJECT_ID>2025-088H</OBJECT_ID><CENTER_NAME>EARTH</CENTER_NAME><REF_FRAME>TEME</REF_FRAME><TIME_SYSTEM>UTC</TIME_SYSTEM><MEAN_ELEMENT_THEORY>SGP4</MEAN_ELEMENT_THEORY></metadata><data><meanElements><EPOCH>2025-08-04T02:32:14.042112</EPOCH><MEAN_MOTION>14.81285158</MEAN_MOTION><ECCENTRICITY>.0011105</ECCENTRICITY><INCLINATION>51.9021</INCLINATION><RA_OF_ASC_NODE>3.6207</RA_OF_ASC_NODE><ARG_OF_PERICENTER>85.1144</ARG_OF_PERICENTER><MEAN_ANOMALY>275.1086</MEAN_ANOMALY></meanElements><tleParameters><EPHEMERIS_TYPE>0</EPHEMERIS_TYPE><CLASSIFICATION_TYPE>U</CLASSIFICATION_TYPE><NORAD_CAT_ID>63731</NORAD_CAT_ID><ELEMENT_SET_NO>999</ELEMENT_SET_NO><REV_AT_EPOCH>1543</REV_AT_EPOCH><BSTAR>-.50929E-2</BSTAR><MEAN_MOTION_DOT>-.40133E-3</MEAN_MOTION_DOT><MEAN_MOTION_DDOT>0</MEAN_MOTION_DDOT></tleParameters></data></segment></body></omm>

</ndm>
